OBJECT_NAME,OBJECT_ID,EPOCH,MEAN_MOTION,ECCENTRICITY,INCLINATION,RA_OF_ASC_NODE,ARG_OF_PERICENTER,MEAN_ANOMALY,EPHEMERIS_TYPE,CLASSIFICATION_TYPE,NORAD_CAT_ID,ELEMENT_SET_NO,REV_AT_EPOCH,BSTAR,MEAN_MOTION_DOT,MEAN_MOTION_DDOT
ONEWEB-0012,2019-010A,2026-07-17T01:03:18.918144,13.16594223,.00016593,87.9074,222.8545,95.3436,264.7885,0,U,44057,999,35549,.1171391E-3,.58E-6,0
ONEWEB-0010,2019-010B,2026-07-17T07:08:07.731744,13.16593668,.00023262,87.9080,222.7999,99.8829,260.2565,0,U,44058,999,35557,.14720634E-3,.69E-6,0
ONEWEB-0008,2019-010C,2026-07-17T00:26:51.505152,13.16593579,.00021723,87.9079,222.8504,86.1199,274.0180,0,U,44059,999,35565,-.10135016E-3,-.26E-6,0
ONEWEB-0007,2019-010D,2026-07-17T01:51:32.969952,13.15548632,.00019787,87.8983,253.2654,105.8210,254.3139,0,U,44060,999,35530,.40630958E-3,.166E-5,0
ONEWEB-0006,2019-010E,2026-07-17T03:46:44.802336,13.15551524,.0002247,87.8996,253.2166,96.4880,263.6506,0,U,44061,999,35536,.31145064E-3,.13E-5,0
ONEWEB-0011,2019-010F,2026-07-17T03:01:07.063680,13.15549443,.00022556,87.8994,253.2333,95.3613,264.7775,0,U,44062,999,35535,.14918396E-3,.69E-6,0
ONEWEB-0013,2020-008A,2026-07-16T23:17:10.260960,13.09454745,.00008967,87.8487,46.8117,67.3252,292.7970,0,U,45131,999,30996,.62478132E-3,.228E-5,0
ONEWEB-0017,2020-008B,2026-07-17T00:11:53.433312,13.10371670,.00020238,87.8809,30.3249,92.4595,267.6765,0,U,45132,999,31185,-.41297047E-3,-.131E-5,0
ONEWEB-0020,2020-008C,2026-07-16T14:18:08.390016,13.10374126,.00018326,87.8822,30.4067,87.3160,272.8177,0,U,45133,999,31219,.15880763E-2,.567E-5,0
ONEWEB-0021,2020-008D,2026-07-16T21:59:56.405184,13.10370613,.00017664,87.8813,30.3571,91.4542,268.6788,0,U,45134,999,31254,.14660938E-2,.524E-5,0
ONEWEB-0023,2020-008F,2026-07-17T00:05:46.332672,13.10368532,.00017948,87.8817,30.3237,82.7980,277.3352,0,U,45136,999,31198,.19141479E-3,.79E-6,0
ONEWEB-0024,2020-008G,2026-07-16T23:25:39.321120,13.10374327,.00018532,87.8829,30.3230,89.6671,270.4669,0,U,45137,999,31214,.12366985E-2,.444E-5,0
ONEWEB-0025,2020-008H,2026-07-16T23:25:15.625920,13.10375048,.00021912,87.8829,30.3129,79.6601,280.4773,0,U,45138,999,31247,.12372034E-2,.445E-5,0
ONEWEB-0026,2020-008J,2026-07-16T12:47:15.491616,13.11418502,.00019928,87.8884,15.2239,91.7114,268.4242,0,U,45139,999,31495,-.88654904E-3,-.302E-5,0
ONEWEB-0028,2020-008K,2026-07-16T23:11:04.208352,13.11414503,.0001273,87.8878,15.1446,86.0599,274.0675,0,U,45140,999,31252,-.38598391E-3,-.124E-5,0
ONEWEB-0032,2020-008L,2026-07-17T05:44:23.850816,13.10370204,.00014183,87.8813,30.2808,78.3163,281.8123,0,U,45141,999,31223,-.66461208E-3,-.219E-5,0
ONEWEB-0033,2020-008M,2026-07-16T23:37:41.239776,13.10372205,.00022767,87.8812,30.3375,95.4858,264.6529,0,U,45142,999,31211,.18491334E-2,.658E-5,0
ONEWEB-0035,2020-008N,2026-07-17T05:37:03.408672,13.10373783,.00018383,87.8809,30.2812,90.4926,269.6412,0,U,45143,999,31187,.17467588E-3,.74E-6,0
ONEWEB-0036,2020-008P,2026-07-16T23:35:04.870464,13.10374594,.00017148,87.8833,30.3487,83.0775,277.0547,0,U,45144,999,31226,.17504351E-2,.624E-5,0
ONEWEB-0038,2020-008Q,2026-07-17T05:30:55.194336,13.11418752,.00021567,87.8901,15.0982,140.6436,219.4849,0,U,45145,999,31426,-.42416717E-3,-.138E-5,0
ONEWEB-0039,2020-008R,2026-07-16T23:42:34.665408,13.10371856,.00013202,87.8817,30.3280,83.6697,276.4581,0,U,45146,999,31206,.18930636E-2,.674E-5,0
ONEWEB-0040,2020-008S,2026-07-16T23:32:47.376096,13.10373366,.00018334,87.8817,30.3397,77.9568,282.1765,0,U,45147,999,31176,.17444888E-2,.622E-5,0
ONEWEB-0043,2020-008U,2026-07-16T23:35:26.121408,13.10375478,.00013234,87.8822,30.3287,80.8907,279.2370,0,U,45149,999,31208,.17014703E-2,.607E-5,0
ONEWEB-0044,2020-008V,2026-07-17T05:46:38.164800,13.10372707,.0001705,87.8821,30.2790,84.7983,275.3339,0,U,45150,999,31241,-.81648091E-3,-.272E-5,0
ONEWEB-0045,2020-008W,2026-07-17T05:23:23.419968,13.11418313,.00017181,87.8894,15.0802,92.2020,267.9305,0,U,45151,999,31434,-.8177933E-3,-.277E-5,0
ONEWEB-0047,2020-008X,2026-07-17T00:06:47.628288,13.10368607,.00019133,87.8820,30.3253,93.8219,266.3127,0,U,45152,999,31210,.23386703E-3,.94E-6,0
ONEWEB-0048,2020-008Y,2026-07-16T23:59:41.080992,13.10370435,.00017419,87.8811,30.3449,92.6980,267.4347,0,U,45153,999,31171,.95102619E-3,.345E-5,0
ONEWEB-0049,2020-008Z,2026-07-17T05:34:12.492192,13.10369335,.00018752,87.8809,30.2876,76.5181,283.6155,0,U,45154,999,31196,.49574687E-3,.186E-5,0
ONEWEB-0051,2020-008AA,2026-07-16T22:01:28.732224,13.11419335,.00018298,87.8888,15.1467,90.4589,269.6748,0,U,45155,999,31498,-.83445057E-3,-.283E-5,0
ONEWEB-0052,2020-008AB,2026-07-16T13:34:20.464032,13.10375109,.00017373,87.8821,30.4086,76.2832,283.8488,0,U,45156,999,31178,-.19301124E-2,-.661E-5,0
