ONEWEB-0012             
1 44057U 19010A   26198.04396896  .00000058  00000+0  11714-3 0  9991
2 44057  87.9074 222.8545 0001659  95.3436 264.7885 13.16594223355498
ONEWEB-0010             
1 44058U 19010B   26198.29731171  .00000069  00000+0  14721-3 0  9991
2 44058  87.9080 222.7999 0002326  99.8829 260.2565 13.16593668355572
ONEWEB-0008             
1 44059U 19010C   26198.01865168 -.00000026  00000+0 -10135-3 0  9996
2 44059  87.9079 222.8504 0002172  86.1199 274.0180 13.16593579355658
ONEWEB-0007             
1 44060U 19010D   26198.07746493  .00000166  00000+0  40631-3 0  9990
2 44060  87.8983 253.2654 0001978 105.8210 254.3139 13.15548632355309
ONEWEB-0006             
1 44061U 19010E   26198.15746299  .00000130  00000+0  31145-3 0  9995
2 44061  87.8996 253.2166 0002247  96.4880 263.6506 13.15551524355361
ONEWEB-0011             
1 44062U 19010F   26198.12577620  .00000069  00000+0  14918-3 0  9993
2 44062  87.8994 253.2333 0002255  95.3613 264.7775 13.15549443355353
ONEWEB-0013             
1 45131U 20008A   26197.97025765  .00000228  00000+0  62478-3 0  9991
2 45131  87.8487  46.8117 0000896  67.3252 292.7970 13.09454745309968
ONEWEB-0017             
1 45132U 20008B   26198.00825733 -.00000131  00000+0 -41297-3 0  9991
2 45132  87.8809  30.3249 0002023  92.4595 267.6765 13.10371670311855
ONEWEB-0020             
1 45133U 20008C   26197.59593044  .00000567  00000+0  15881-2 0  9992
2 45133  87.8822  30.4067 0001832  87.3160 272.8177 13.10374126312190
ONEWEB-0021             
1 45134U 20008D   26197.91662506  .00000524  00000+0  14661-2 0  9997
2 45134  87.8813  30.3571 0001766  91.4542 268.6788 13.10370613312543
ONEWEB-0023             
1 45136U 20008F   26198.00400848  .00000079  00000+0  19141-3 0  9993
2 45136  87.8817  30.3237 0001794  82.7980 277.3352 13.10368532311986
ONEWEB-0024             
1 45137U 20008G   26197.97614955  .00000444  00000+0  12367-2 0  9993
2 45137  87.8829  30.3230 0001853  89.6671 270.4669 13.10374327312145
ONEWEB-0025             
1 45138U 20008H   26197.97587530  .00000445  00000+0  12372-2 0  9999
2 45138  87.8829  30.3129 0002191  79.6601 280.4773 13.10375048312475
ONEWEB-0026             
1 45139U 20008J   26197.53281819 -.00000302  00000+0 -88655-3 0  9995
2 45139  87.8884  15.2239 0001992  91.7114 268.4242 13.11418502314959
ONEWEB-0028             
1 45140U 20008K   26197.96602093 -.00000124  00000+0 -38598-3 0  9998
2 45140  87.8878  15.1446 0001273  86.0599 274.0675 13.11414503312520
ONEWEB-0032             
1 45141U 20008L   26198.23916494 -.00000219  00000+0 -66461-3 0  9998
2 45141  87.8813  30.2808 0001418  78.3163 281.8123 13.10370204312232
ONEWEB-0033             
1 45142U 20008M   26197.98450509  .00000658  00000+0  18491-2 0  9994
2 45142  87.8812  30.3375 0002276  95.4858 264.6529 13.10372205312115
ONEWEB-0035             
1 45143U 20008N   26198.23406723  .00000074  00000+0  17468-3 0  9999
2 45143  87.8809  30.2812 0001838  90.4926 269.6412 13.10373783311871
ONEWEB-0036             
1 45144U 20008P   26197.98269526  .00000624  00000+0  17504-2 0  9990
2 45144  87.8833  30.3487 0001714  83.0775 277.0547 13.10374594312268
ONEWEB-0038             
1 45145U 20008Q   26198.22980549 -.00000138  00000+0 -42417-3 0  9998
2 45145  87.8901  15.0982 0002156 140.6436 219.4849 13.11418752314263
ONEWEB-0039             
1 45146U 20008R   26197.98790122  .00000674  00000+0  18931-2 0  9993
2 45146  87.8817  30.3280 0001320  83.6697 276.4581 13.10371856312062
ONEWEB-0040             
1 45147U 20008S   26197.98110389  .00000622  00000+0  17445-2 0  9997
2 45147  87.8817  30.3397 0001833  77.9568 282.1765 13.10373366311766
ONEWEB-0043             
1 45149U 20008U   26197.98294122  .00000607  00000+0  17015-2 0  9993
2 45149  87.8822  30.3287 0001323  80.8907 279.2370 13.10375478312087
ONEWEB-0044             
1 45150U 20008V   26198.24071950 -.00000272  00000+0 -81648-3 0  9991
2 45150  87.8821  30.2790 0001705  84.7983 275.3339 13.10372707312418
ONEWEB-0045             
1 45151U 20008W   26198.22457662 -.00000277  00000+0 -81779-3 0  9998
2 45151  87.8894  15.0802 0001718  92.2020 267.9305 13.11418313314343
ONEWEB-0047             
1 45152U 20008X   26198.00471792  .00000094  00000+0  23387-3 0  9991
2 45152  87.8820  30.3253 0001913  93.8219 266.3127 13.10368607312103
ONEWEB-0048             
1 45153U 20008Y   26197.99978103  .00000345  00000+0  95103-3 0  9991
2 45153  87.8811  30.3449 0001741  92.6980 267.4347 13.10370435311716
ONEWEB-0049             
1 45154U 20008Z   26198.23208903  .00000186  00000+0  49575-3 0  9999
2 45154  87.8809  30.2876 0001875  76.5181 283.6155 13.10369335311960
ONEWEB-0051             
1 45155U 20008AA  26197.91769366 -.00000283  00000+0 -83445-3 0  9993
2 45155  87.8888  15.1467 0001829  90.4589 269.6748 13.11419335314986
ONEWEB-0052             
1 45156U 20008AB  26197.56551463 -.00000661  00000+0 -19301-2 0  9991
2 45156  87.8821  30.4086 0001737  76.2832 283.8488 13.10375109311785
